[{"OBJECT_NAME":"OBJECT H","OBJECT_ID":"2025-055H","EPOCH":"2026-03-09T23:29:50.051328","MEAN_MOTION":15.30330066,"ECCENTRICITY":0.00075967,"INCLINATION":97.636,"RA_OF_ASC_NODE":211.9572,"ARG_OF_PERICENTER":140.4354,"MEAN_ANOMALY":219.7441,"EPHEMERIS_TYPE":0,"CLASSIFICATION_TYPE":"U","NORAD_CAT_ID":63298,"ELEMENT_SET_NO":999,"REV_AT_EPOCH":5423,"BSTAR":0.0015582864,"MEAN_MOTION_DOT":0.00045901,"MEAN_MOTION_DDOT":0},{"OBJECT_NAME":"STARLINK-35658","OBJECT_ID":"2025-237N","EPOCH":"2026-03-09T07:04:07.498272","MEAN_MOTION":15.30191447,"ECCENTRICITY":0.0001187,"INCLINATION":53.1605,"RA_OF_ASC_NODE":41.2013,"ARG_OF_PERICENTER":89.7512,"MEAN_ANOMALY":270.3624,"EPHEMERIS_TYPE":0,"CLASSIFICATION_TYPE":"U","NORAD_CAT_ID":66126,"ELEMENT_SET_NO":999,"REV_AT_EPOCH":2254,"BSTAR":0.00073093955,"MEAN_MOTION_DOT":0.00021346,"MEAN_MOTION_DDOT":0}]
